0 GLOBALSTAR M057
1 25943U 99058A   23318.88074685 -.00000029  00000-0  57850-3 0  9997
2 25943  51.9970 195.0317 0001455 261.3069  98.7615 12.24778770 95829
0 GLOBALSTAR M059
1 25944U 99058B   23318.92420726 -.00000061  00000-0  31371-3 0  9990
2 25944  52.0038 336.9370 0000221 289.8662 139.3734 11.99954675504387
0 GLOBALSTAR M056
1 25945U 99058C   23318.85882605  .00000005  00000-0  10802-2 0  9993
2 25945  51.9990 353.9828 0001172 115.3648  55.2863 12.04771529 92678
0 GLOBALSTAR M031
1 25946U 99058D   23319.27965872 -.00000148  00000-0 -58057-3 0  9994
2 25946  51.9968 279.8499 0002052  72.2336  74.9772 12.15998584 94232
0 GLOBALSTAR M039
1 25961U 99062A   23319.07906653 -.00000037  00000-0  37047-3 0  9998
2 25961  51.9845 235.5313 0003043 126.3263 233.7884 12.62274432106984
0 GLOBALSTAR M034
1 25962U 99062B   23318.66241934 -.00000106  00000-0 -40223-3 0  9995
2 25962  51.9867  80.3742 0014086  29.2663 343.4452 11.79417086 69894
0 GLOBALSTAR M029
1 25963U 99062C   23319.25108098 -.00000034  00000-0  65228-3 0  9996
2 25963  51.9797 224.5837 0003570  59.9415 115.5927 11.99870373 99550
0 GLOBALSTAR M061
1 25964U 99062D   23319.15565094  .00000006  00000-0  14077-2 0  9992
2 25964  51.9794 255.4461 0006008 322.6781 142.3133 11.76754230 53183
